IRIDIUM 156             
1 43576U 18061H   22276.72446786  .00000156  00000+0  48653-4 0  9995
2 43576  86.3921 261.8768 0002449  83.3200 276.8274 14.34215743219528
IRIDIUM 164             
1 43577U 18061J   22276.70543758  .00000186  00000+0  59333-4 0  9991
2 43577  86.3921 261.9045 0001933  87.0981 273.0436 14.34217685219562
IRIDIUM 159             
1 43578U 18061K   22276.67371438  .00000189  00000+0  60370-4 0  9998
2 43578  86.3920 261.8830 0002006  90.0123 270.1303 14.34221096219525
BEIDOU-3 M9             
1 43581U 18062A   22276.76359882  .00000009  00000+0  00000+0 0  9992
2 43581  54.2500 228.3777 0005509 280.5263 241.3148  1.86232021 28446
BEIDOU-3 M10            
1 43582U 18062B   22276.89922721  .00000007  00000+0  00000+0 0  9993
2 43582  54.2499 228.3620 0005287 345.8436 358.8461  1.86232476 28447
GAOFEN 11-1             
1 43585U 18063A   22276.92326293  .00006515  00000+0  27500-3 0  9991
2 43585  97.3104 350.3440 0015089 152.3388 325.7167 15.23503923232903
TELKOM 4 (MERAH PUTIH)  
1 43587U 18064A   22276.83938275 -.00000356  00000+0  00000+0 0  9993
2 43587   0.0186 172.3157 0001420   5.9501 244.4305  1.00268647 15302
AEOLUS                  
1 43600U 18066A   22276.58664357  .00130341  00000+0  50008-3 0  9994
2 43600  96.7021 280.5979 0009688 113.8905 246.3384 15.86995377238270
BEIDOU-3 M11            
1 43602U 18067A   22276.59508529  .00000011  00000+0  00000+0 0  9999
2 43602  54.3332 226.9974 0007108   3.3621 178.5651  1.86231598 27934
BEIDOU-3 M12            
1 43603U 18067B   22276.73759478  .00000008  00000+0  00000+0 0  9993
2 43603  54.3298 226.9589 0004413 348.0120 199.8165  1.86231563 27957
HAIYANG-1C              
1 43609U 18068A   22276.87504097  .00000111  00000+0  54895-4 0  9991
2 43609  98.4495 348.3062 0011514 150.7152 209.4675 14.34188721213257
TELSTAR 18V (APSTAR 5C) 
1 43611U 18069A   22276.74563338 -.00000305  00000+0  00000+0 0  9994
2 43611   0.0186 224.6188 0002091 312.1631 242.0995  1.00270409 15068
ICESAT-2                
1 43613U 18070A   22276.68923678  .00004304  00000+0  15613-3 0  9990
2 43613  91.9984 287.3565 0001235 338.6244  21.4953 15.28303768225901
SURFSAT                 
1 43614U 18070B   22276.79239595  .00102756  00000+0  10737-2 0  9992
2 43614  93.0149 144.9495 0005726 323.9630  36.1251 15.64134599227947
CP7 (DAVE)              
1 43615U 18070C   22276.15007127  .00084754  00000+0  97663-3 0  9998
2 43615  93.0133 144.3956 0006830 331.0538  29.0349 15.61663018227793
ELFIN-B                 
1 43616U 18070D   22273.19173268  .15406410  25966-6  24527-3 0  9997
2 43616  92.9806 145.7922 0009909 241.3990 118.6326 16.47871482227917
SSTL S1-4               
1 43618U 18071A   22276.80038643  .00001477  00000+0  14048-3 0  9998
2 43618  97.6702 169.4990 0011915   8.6472 351.4968 14.94908454220825
NOVASAR 1               
1 43619U 18071B   22276.78590253  .00000410  00000+0  42731-4 0  9993
2 43619  97.6716 169.6224 0006127  12.0584 348.0795 14.94939804220817
BEIDOU-3 M13            
1 43622U 18072A   22276.68938189  .00000048  00000+0  00000+0 0  9996
2 43622  55.5421 107.7189 0004436 290.6264 253.8853  1.86231787 27466
BEIDOU-3 M14            
1 43623U 18072B   22275.76605411  .00000043  00000+0  00000+0 0  9999
2 43623  55.5432 107.7416 0002927 339.3414  36.3644  1.86231835 27458
AZERSPACE 2 (IS-38)     
1 43632U 18074A   22276.84007916  .00000125  00000+0  00000+0 0  9998
2 43632   0.0218 173.9825 0001483  15.8720 170.1954  1.00270131 14888
HORIZONS-3E             
1 43633U 18074B   22276.73521628 -.00000042  00000+0  00000+0 0  9997
2 43633   0.0144  41.1814 0000875 261.6115 143.2897  1.00270018 14784
CENTISPACE-1 S1         
1 43636U 18075A   22276.88975594  .00000393  00000+0  96984-4 0  9991
2 43636  98.0516 337.0550 0009959  42.3802 317.8165 14.57091393213433
SAOCOM 1A               
1 43641U 18076A   22276.89976686  .00000381  00000+0  54423-4 0  9991
2 43641  97.8895 102.0540 0001344  86.3808 273.7565 14.82152637215791
YAOGAN-32 A             
1 43642U 18077A   22276.92204094  .00000499  00000+0  11419-3 0  9991
2 43642  98.0773 326.9852 0001713  87.5203 272.6194 14.59671976212334
YAOGAN-32 B             
1 43643U 18077B   22276.92193308  .00000486  00000+0  11139-3 0  9992
2 43643  98.0771 326.9539 0001678  83.5263 276.6129 14.59671414212325
BEIDOU-3 M15            
1 43647U 18078A   22275.37741110 -.00000084  00000+0  10000-3 0  9996
2 43647  55.0819 346.9295 0005104   3.1255   7.6838  1.86232827 26951
BEIDOU-3 M16            
1 43648U 18078B   22276.82665728 -.00000088  00000+0  00000+0 0  9997
2 43648  55.0775 346.8844 0002997  16.8692 153.1701  1.86232363 26990
AEHF-4 (USA 288)        
1 43651U 18079A   22276.55674345 -.00000286  00000+0  00000+0 0  9997
2 43651   2.3613 317.7049 0004130 222.8722 324.5788  1.00268309 14731
HAIYANG-2B              
1 43655U 18081A   22276.82128131 -.00000024  00000+0  19709-4 0  9992
2 43655  99.3442 284.0739 0000379 189.1350 170.9797 13.79301900198499
COSMOS 2528             
1 43657U 18082A   22276.32578504 -.00000041  00000+0  24728-4 0  9999
2 43657  67.1473 125.4290 0008041 268.2990  91.7173 13.96536845201031
CFOSAT                  
1 43662U 18083A   22276.84355458  .00003112  00000+0  16379-3 0  9997
2 43662  97.4179 297.0933 0000990  72.3927 101.2469 15.16354795217583
CUBEBEL-1 (BSUSAT-1)    
1 43666U 18083E   22276.92466506  .00012148  00000+0  48910-3 0  9992
2 43666  97.4144 304.4639 0011257 318.4180 126.3458 15.24959340218008
CHANGSHAGAOXIN (TY 4-01)
1 43669U 18083H   22276.88765380  .00011139  00000+0  47210-3 0  9993
2 43669  97.4100 300.0703 0007760 319.6426 118.0379 15.23281540217803
GOSAT 2                 
1 43672U 18084B   22276.86700655  .00003312  00000+0  40171-3 0  9993
2 43672  97.8557  26.6873 0001461  96.2190 263.9191 14.84256027212966
KHALIFASAT              
1 43676U 18084F   22276.80125980  .00002151  00000+0  22896-3 0  9997
2 43676  97.9606  43.0294 0014449 260.5281  99.4314 14.89945877213629
TEN-KOH                 
1 43677U 18084G   22276.84706652  .00003415  00000+0  34765-3 0  9995
2 43677  97.9789  47.9898 0014378 274.5436  85.4140 14.91354499213835
DIWATA-2B               
1 43678U 18084H   22276.80905579  .00001496  00000+0  15210-3 0  9992
2 43678  97.9865  51.4500 0008456 290.6401  69.3942 14.92340023214013
STARS-AO                
1 43679U 18084J   22276.84188774  .00004993  00000+0  47374-3 0  9998
2 43679  97.9892  53.6916 0007858 294.7361  65.3040 14.93987334214124
AUTCUBE 2               
1 43681U 18084K   22276.83988925  .00003856  00000+0  37387-3 0  9996
2 43681  97.9856  52.1733 0008115 289.1654  70.8686 14.93274279214021
BEIDOU-3 G1             
1 43683U 18085A   22276.74563338 -.00000290  00000+0  00000+0 0  9994
2 43683   1.0149 149.6593 0004407  48.3926 222.8054  1.00266774 14499
COSMOS 2529 [GLONASS-M] 
1 43687U 18086A   22276.86709250  .00000036  00000+0  00000+0 0  9994
2 43687  64.3517 238.4529 0011534 264.8551 164.3898  2.13102182 30477
METOP-C                 
1 43689U 18087A   22276.83788589  .00000132  00000+0  80249-4 0  9991
2 43689  98.6726 335.0096 0003833  90.0898 270.0719 14.21511898202704
CICERO 10               
1 43690U 18088A   22276.86266994  .00016746  00000+0  64107-3 0  9990
2 43690  85.0341 244.2881 0016141 104.1182 256.1858 15.26311958216289
NABEO-1 & KICK STAGE    
1 43692U 18088C   22276.39570295  .00033036  00000+0  11097-2 0  9992
2 43692  85.0284 242.2444 0016752  85.7870 274.5290 15.30559218216323
IRVINE01                
1 43693U 18088D   22276.82673533  .00117295  00000+0  23709-2 0  9993
2 43693  85.0253 236.9584 0014680  76.0753 284.2134 15.45928513216910
PROXIMA I               
1 43694U 18088E   22276.63996139  .00018446  00000+0  66972-3 0  9991
2 43694  85.0281 240.8544 0019440  76.6748 283.6663 15.28003605216480
LEMUR-2-ZUPANSKI        
1 43695U 18088F   22276.63341675  .00029996  00000+0  98678-3 0  9991
2 43695  85.0270 241.0759 0016222  95.1112 265.1987 15.31249131216446
PROXIMA II              
1 43696U 18088G   22276.64190370  .00018050  00000+0  65595-3 0  9998
2 43696  85.0281 240.8762 0019494  76.6510 283.6907 15.27971625216475
LEMUR-2-CHANUSIAK       
1 43697U 18088H   22276.64682370  .00029586  00000+0  93016-3 0  9990
2 43697  85.0325 241.0517 0015820  77.8015 282.5004 15.32709227216578
GSAT-29                 
1 43698U 18089A   22276.73191990  .00000074  00000+0  00000+0 0  9993
2 43698   0.0589  94.1575 0002296  99.3833 137.3832  1.00271074 14227
ES'HAIL 2               
1 43700U 18090A   22276.82202142  .00000132  00000+0  00000+0 0  9996
2 43700   0.0191 254.3128 0002220 323.7830 116.1535  1.00271001 14115
BEIDOU-3 M17            
1 43706U 18093A   22275.64966658  .00000027  00000+0  00000+0 0  9996
2 43706  54.3319 228.3093 0010353 279.7734  80.0942  1.86231712 26333
BEIDOU-3 M18            
1 43707U 18093B   22276.84424694  .00000008  00000+0  00000+0 0  9998
2 43707  54.3328 228.2588 0009229 300.4866 231.6202  1.86232318 26347
TIANZHI 1               
1 43710U 18094A   22276.79822478  .00005821  00000+0  22729-3 0  9993
2 43710  97.4008 285.2254 0012468 341.7414 104.5555 15.26215677215339
SHIYAN 6 01 (SY-6 01)   
1 43711U 18094B   22276.90176367  .00009007  00000+0  33162-3 0  9999
2 43711  97.4185 283.1421 0067317  93.8189 267.0749 15.25911725215129
TIANPING 1A             
1 43712U 18094C   22276.79365412  .00009200  00000+0  32884-3 0  9993
2 43712  97.3971 286.5250 0010723 335.2657 199.4085 15.28992845215420
JIADING 1               
1 43713U 18094D   22276.81698781  .00008062  00000+0  29353-3 0  9997
2 43713  97.3971 286.3589 0012207 340.1552  98.0804 15.28410902215413
TIANPING 1B             
1 43714U 18094E   22276.77041632  .00005557  00000+0  21277-3 0  9993
2 43714  97.3998 285.5994 0011162 340.8380 124.0134 15.26906675215353
